start=new Date('2022-07-22T00:00:00.000Z').valueOf();
sats=[{"EPHEMERIS_TYPE":"0","COUNTRY_CODE":"US","CLASSIFICATION_TYPE":"U","OBJECT_ID":"2020-025AW","SITE":"AFETR","EPOCH":"2022-07-21T10:45:53.745408","BSTAR":"0.00091494000000","PERIOD":"94.989","APOAPSIS":"518.345","PERIAPSIS":"517.796","MEAN_ANOMALY":"341.6476","MEAN_ELEMENT_THEORY":"SGP4","TLE_LINE1":"1 45575U 20025AW  22202.44853872  .00017498  00000-0  91494-3 0  9993","GP_ID":"208572050","NORAD_CAT_ID":"45575","ELEMENT_SET_NO":"999","ECCENTRICITY":"0.00003980","TIME_SYSTEM":"UTC","SEMIMAJOR_AXIS":"6896.205","RA_OF_ASC_NODE":"260.7741","REF_FRAME":"TEME","OBJECT_TYPE":"PAYLOAD","OBJECT_NAME":"STARLINK-1326","MEAN_MOTION_DDOT":"0.0000000000000","CENTER_NAME":"EARTH","DECAY_DATE":null,"MEAN_MOTION":"15.15959110","LAUNCH_DATE":"2020-04-22","MEAN_MOTION_DOT":"0.00017498","REV_AT_EPOCH":"12563","ARG_OF_PERICENTER":"18.4530","TLE_LINE2":"2 45575  52.9987 260.7741 0000398  18.4530 341.6476 15.15959110125631","FILE":"3518988","RCS_SIZE":"LARGE","INCLINATION":"52.9987"},{"SEMIMAJOR_AXIS":"6925.404","RA_OF_ASC_NODE":"274.1994","REF_FRAME":"TEME","LAUNCH_DATE":"2020-04-22","MEAN_MOTION":"15.06381945","MEAN_MOTION_DOT":"-0.00006313","CENTER_NAME":"EARTH","DECAY_DATE":null,"OBJECT_NAME":"STARLINK-1328","MEAN_MOTION_DDOT":"0.0000000000000","OBJECT_TYPE":"PAYLOAD","ARG_OF_PERICENTER":"75.5823","REV_AT_EPOCH":"12549","INCLINATION":"53.0544","RCS_SIZE":"LARGE","FILE":"3519265","TLE_LINE2":"2 45576  53.0544 274.1994 0001349  75.5823 284.5315 15.06381945125494","COUNTRY_CODE":"US","OBJECT_ID":"2020-025AX","CLASSIFICATION_TYPE":"U","EPHEMERIS_TYPE":"0","PERIAPSIS":"546.335","MEAN_ANOMALY":"284.5315","PERIOD":"95.593","APOAPSIS":"548.203","EPOCH":"2022-07-21T14:08:05.275680","BSTAR":"-0.00040548000000","SITE":"AFETR","TLE_LINE1":"1 45576U 20025AX  22202.58894995 -.00006313  00000-0 -40548-3 0  9990","MEAN_ELEMENT_THEORY":"SGP4","ELEMENT_SET_NO":"999","TIME_SYSTEM":"UTC","NORAD_CAT_ID":"45576","ECCENTRICITY":"0.00013490","GP_ID":"208601368"},{"GP_ID":"208602112","ELEMENT_SET_NO":"999","TIME_SYSTEM":"UTC","NORAD_CAT_ID":"45577","ECCENTRICITY":"0.00013890","TLE_LINE1":"1 45577U 20025AY  22202.67738236  .00008909  00000-0  61546-3 0  9998","MEAN_ELEMENT_THEORY":"SGP4","APOAPSIS":"548.027","PERIOD":"95.589","MEAN_ANOMALY":"292.5188","PERIAPSIS":"546.103","SITE":"AFETR","EPOCH":"2022-07-21T16:15:25.835904","BSTAR":"0.00061546000000","EPHEMERIS_TYPE":"0","CLASSIFICATION_TYPE":"U","OBJECT_ID":"2020-025AY","COUNTRY_CODE":"US","RCS_SIZE":"LARGE","INCLINATION":"53.0542","TLE_LINE2":"2 45577  53.0542 273.8066 0001389  67.5948 292.5188 15.06448469125494","FILE":"3519265","ARG_OF_PERICENTER":"67.5948","REV_AT_EPOCH":"12549","DECAY_DATE":null,"CENTER_NAME":"EARTH","MEAN_MOTION_DOT":"0.00008909","LAUNCH_DATE":"2020-04-22","MEAN_MOTION":"15.06448469","OBJECT_TYPE":"PAYLOAD","MEAN_MOTION_DDOT":"0.0000000000000","OBJECT_NAME":"STARLINK-1330","RA_OF_ASC_NODE":"273.8066","REF_FRAME":"TEME","SEMIMAJOR_AXIS":"6925.200"},{"MEAN_ELEMENT_THEORY":"SGP4","TLE_LINE1":"1 45578U 20025AZ  22202.71429966 -.00003648  00000-0 -22626-3 0  9994","GP_ID":"208602858","ELEMENT_SET_NO":"999","ECCENTRICITY":"0.00014180","NORAD_CAT_ID":"45578","TIME_SYSTEM":"UTC","EPHEMERIS_TYPE":"0","OBJECT_ID":"2020-025AZ","CLASSIFICATION_TYPE":"U","COUNTRY_CODE":"US","SITE":"AFETR","EPOCH":"2022-07-21T17:08:35.490624","BSTAR":"-0.00022626000000","APOAPSIS":"548.264","PERIOD":"95.594","MEAN_ANOMALY":"281.7762","PERIAPSIS":"546.300","REV_AT_EPOCH":"12551","ARG_OF_PERICENTER":"78.3386","TLE_LINE2":"2 45578  53.0536 273.6326 0001418  78.3386 281.7762 15.06377740125518","FILE":"3519265","RCS_SIZE":"LARGE","INCLINATION":"53.0536","RA_OF_ASC_NODE":"273.6326","REF_FRAME":"TEME","SEMIMAJOR_AXIS":"6925.417","OBJECT_TYPE":"PAYLOAD","MEAN_MOTION_DDOT":"0.0000000000000","OBJECT_NAME":"STARLINK-1331","DECAY_DATE":null,"CENTER_NAME":"EARTH","MEAN_MOTION_DOT":"-0.00003648","MEAN_MOTION":"15.06377740","LAUNCH_DATE":"2020-04-22"},{"EPHEMERIS_TYPE":"0","OBJECT_ID":"2020-025BA","CLASSIFICATION_TYPE":"U","COUNTRY_CODE":"US","APOAPSIS":"548.126","PERIOD":"95.593","MEAN_ANOMALY":"258.3563","PERIAPSIS":"546.363","SITE":"AFETR","BSTAR":"-0.00002071600000","EPOCH":"2022-07-21T18:54:45.091296","TLE_LINE1":"1 45579U 20025BA  22202.78802189 -.00000590  00000-0 -20716-4 0  9996","MEAN_ELEMENT_THEORY":"SGP4","GP_ID":"208601619","ELEMENT_SET_NO":"999","NORAD_CAT_ID":"45579","ECCENTRICITY":"0.00012730","TIME_SYSTEM":"UTC","RA_OF_ASC_NODE":"233.4654","REF_FRAME":"TEME","SEMIMAJOR_AXIS":"6925.379","DECAY_DATE":null,"CENTER_NAME":"EARTH","MEAN_MOTION_DOT":"-0.00000590","MEAN_MOTION":"15.06389996","LAUNCH_DATE":"2020-04-22","OBJECT_TYPE":"PAYLOAD","MEAN_MOTION_DDOT":"0.0000000000000","OBJECT_NAME":"STARLINK-1332","ARG_OF_PERICENTER":"101.7569","REV_AT_EPOCH":"12607","RCS_SIZE":"LARGE","INCLINATION":"53.0537","TLE_LINE2":"2 45579  53.0537 233.4654 0001273 101.7569 258.3563 15.06389996126078","FILE":"3519265"},{"INCLINATION":"53.0536","RCS_SIZE":"LARGE","FILE":"3519265","TLE_LINE2":"2 45580  53.0536 283.6051 0001322  81.3276 278.7863 15.06387579125365","ARG_OF_PERICENTER":"81.3276","REV_AT_EPOCH":"12536","MEAN_MOTION_DOT":"-0.00002470","LAUNCH_DATE":"2020-04-22","MEAN_MOTION":"15.06387579","DECAY_DATE":null,"CENTER_NAME":"EARTH","MEAN_MOTION_DDOT":"0.0000000000000","OBJECT_NAME":"STARLINK-1333","OBJECT_TYPE":"PAYLOAD","RA_OF_ASC_NODE":"283.6051","REF_FRAME":"TEME","SEMIMAJOR_AXIS":"6925.387","ELEMENT_SET_NO":"999","NORAD_CAT_ID":"45580","ECCENTRICITY":"0.00013220","TIME_SYSTEM":"UTC","GP_ID":"208601869","TLE_LINE1":"1 45580U 20025BB  22202.72073876 -.00002470  00000-0 -14705-3 0  9994","MEAN_ELEMENT_THEORY":"SGP4","MEAN_ANOMALY":"278.7863","PERIAPSIS":"546.336","APOAPSIS":"548.167","PERIOD":"95.593","BSTAR":"-0.00014705000000","EPOCH":"2022-07-21T17:17:51.828864","SITE":"AFETR","CLASSIFICATION_TYPE":"U","OBJECT_ID":"2020-025BB","COUNTRY_CODE":"US","EPHEMERIS_TYPE":"0"},{"MEAN_ELEMENT_THEORY":"SGP4","TLE_LINE1":"1 45581U 20025BC  22202.59264244 -.00006014  00000-0 -38537-3 0  9998","NORAD_CAT_ID":"45581","ELEMENT_SET_NO":"999","ECCENTRICITY":"0.00013770","TIME_SYSTEM":"UTC","GP_ID":"208602613","CLASSIFICATION_TYPE":"U","OBJECT_ID":"2020-025BC","COUNTRY_CODE":"US","EPHEMERIS_TYPE":"0","EPOCH":"2022-07-21T14:13:24.306816","BSTAR":"-0.00038537000000","SITE":"AFETR","MEAN_ANOMALY":"268.7542","PERIAPSIS":"546.307","APOAPSIS":"548.215","PERIOD":"95.593","REV_AT_EPOCH":"12548","ARG_OF_PERICENTER":"91.3605","FILE":"3519265","TLE_LINE2":"2 45581  53.0530 274.1854 0001377  91.3605 268.7542 15.06384495125483","INCLINATION":"53.0530","RCS_SIZE":"LARGE","RA_OF_ASC_NODE":"274.1854","REF_FRAME":"TEME","SEMIMAJOR_AXIS":"6925.396","MEAN_MOTION_DDOT":"0.0000000000000","OBJECT_NAME":"STARLINK-1335","OBJECT_TYPE":"PAYLOAD","MEAN_MOTION_DOT":"-0.00006014","MEAN_MOTION":"15.06384495","LAUNCH_DATE":"2020-04-22","DECAY_DATE":null,"CENTER_NAME":"EARTH"},{"FILE":"3519265","TLE_LINE2":"2 45582  53.0547 273.7983 0001426  69.1925 290.9217 15.06388580125499","INCLINATION":"53.0547","RCS_SIZE":"LARGE","REV_AT_EPOCH":"12549","ARG_OF_PERICENTER":"69.1925","MEAN_MOTION_DDOT":"0.0000000000000","OBJECT_NAME":"STARLINK-1337","OBJECT_TYPE":"PAYLOAD","MEAN_MOTION_DOT":"-0.00001260","MEAN_MOTION":"15.06388580","LAUNCH_DATE":"2020-04-22","DECAY_DATE":null,"CENTER_NAME":"EARTH","RA_OF_ASC_NODE":"273.7983","REF_FRAME":"TEME","SEMIMAJOR_AXIS":"6925.384","NORAD_CAT_ID":"45582","ELEMENT_SET_NO":"999","ECCENTRICITY":"0.00014260","TIME_SYSTEM":"UTC","GP_ID":"208602359","MEAN_ELEMENT_THEORY":"SGP4","TLE_LINE1":"1 45582U 20025BD  22202.68111358 -.00001260  00000-0 -65698-4 0  9993","EPOCH":"2022-07-21T16:20:48.213312","BSTAR":"-0.00006569800000","SITE":"AFETR","MEAN_ANOMALY":"290.9217","PERIAPSIS":"546.261","APOAPSIS":"548.236","PERIOD":"95.593","OBJECT_ID":"2020-025BD","CLASSIFICATION_TYPE":"U","COUNTRY_CODE":"US","EPHEMERIS_TYPE":"0"},{"TLE_LINE1":"1 45583U 20025BE  22202.52999980  .00000020  00000-0  20242-4 0  9999","MEAN_ELEMENT_THEORY":"SGP4","GP_ID":"208601119","NORAD_CAT_ID":"45583","ELEMENT_SET_NO":"999","ECCENTRICITY":"0.00014790","TIME_SYSTEM":"UTC","EPHEMERIS_TYPE":"0","COUNTRY_CODE":"US","CLASSIFICATION_TYPE":"U","OBJECT_ID":"2020-025BE","PERIOD":"95.593","APOAPSIS":"548.265","PERIAPSIS":"546.216","MEAN_ANOMALY":"288.4795","SITE":"AFETR","EPOCH":"2022-07-21T12:43:11.982720","BSTAR":"0.00002024200000","ARG_OF_PERICENTER":"71.6355","REV_AT_EPOCH":"12547","RCS_SIZE":"LARGE","INCLINATION":"53.0558","TLE_LINE2":"2 45583  53.0558 274.4660 0001479  71.6355 288.4795 15.06391194125471","FILE":"3519265","SEMIMAJOR_AXIS":"6925.376","REF_FRAME":"TEME","RA_OF_ASC_NODE":"274.4660","CENTER_NAME":"EARTH","DECAY_DATE":null,"MEAN_MOTION":"15.06391194","LAUNCH_DATE":"2020-04-22","MEAN_MOTION_DOT":"0.00000020","OBJECT_TYPE":"PAYLOAD","OBJECT_NAME":"STARLINK-1340","MEAN_MOTION_DDOT":"0.0000000000000"},{"SITE":"AFETR","BSTAR":"-0.00039176000000","EPOCH":"2022-07-21T17:12:31.359168","PERIOD":"95.594","APOAPSIS":"548.294","PERIAPSIS":"546.289","MEAN_ANOMALY":"285.6036","EPHEMERIS_TYPE":"0","COUNTRY_CODE":"US","OBJECT_ID":"2020-025BF","CLASSIFICATION_TYPE":"U","GP_ID":"208601369","ELEMENT_SET_NO":"999","NORAD_CAT_ID":"45584","ECCENTRICITY":"0.00014480","TIME_SYSTEM":"UTC","MEAN_ELEMENT_THEORY":"SGP4","TLE_LINE1":"1 45584U 20025BF  22202.71702962 -.00006108  00000-0 -39176-3 0  9993","OBJECT_TYPE":"PAYLOAD","OBJECT_NAME":"STARLINK-1343","MEAN_MOTION_DDOT":"0.0000000000000","CENTER_NAME":"EARTH","DECAY_DATE":null,"MEAN_MOTION":"15.06374524","LAUNCH_DATE":"2020-04-22","MEAN_MOTION_DOT":"-0.00006108","SEMIMAJOR_AXIS":"6925.427","REF_FRAME":"TEME","RA_OF_ASC_NODE":"273.6289","TLE_LINE2":"2 45584  53.0544 273.6289 0001448  74.5113 285.6036 15.06374524125504","FILE":"3519265","RCS_SIZE":"LARGE","INCLINATION":"53.0544","REV_AT_EPOCH":"12550","ARG_OF_PERICENTER":"74.5113"}];
